start=new Date('2023-01-19T00:00:00.000Z').valueOf();
sats=[{"EPOCH":"2023-01-18T21:12:03.015072","SEMIMAJOR_AXIS":"6917.866","LAUNCH_DATE":"2022-10-20","COUNTRY_CODE":"US","REV_AT_EPOCH":"1400","RCS_SIZE":"LARGE","GP_ID":"223457611","CLASSIFICATION_TYPE":"U","TLE_LINE2":"2 54082  53.2172  78.0224 0001501  96.2822 263.8341 15.08844784 14001","MEAN_ELEMENT_THEORY":"SGP4","ECCENTRICITY":"0.00015010","NORAD_CAT_ID":"54082","OBJECT_NAME":"STARLINK-5210","ELEMENT_SET_NO":"999","TIME_SYSTEM":"UTC","INCLINATION":"53.2172","BSTAR":"0.00019374000000","OBJECT_TYPE":"PAYLOAD","CENTER_NAME":"EARTH","PERIAPSIS":"538.692","APOAPSIS":"540.769","OBJECT_ID":"2022-136AH","DECAY_DATE":null,"REF_FRAME":"TEME","MEAN_MOTION":"15.08844784","TLE_LINE1":"1 54082U 22136AH  23018.88336823  .00002797  00000-0  19374-3 0  9990","SITE":"AFETR","MEAN_ANOMALY":"263.8341","PERIOD":"95.437","FILE":"3754254","ARG_OF_PERICENTER":"96.2822","MEAN_MOTION_DDOT":"0.0000000000000","MEAN_MOTION_DOT":"0.00002797","EPHEMERIS_TYPE":"0","RA_OF_ASC_NODE":"78.0224"},{"PERIOD":"95.436","MEAN_ANOMALY":"235.6310","SITE":"AFETR","TLE_LINE1":"1 54083U 22136AJ  23018.40862823  .00000676  00000-0  60492-4 0  9995","MEAN_MOTION":"15.08867806","REF_FRAME":"TEME","DECAY_DATE":null,"OBJECT_ID":"2022-136AJ","RA_OF_ASC_NODE":"80.0377","EPHEMERIS_TYPE":"0","MEAN_MOTION_DOT":"0.00000676","MEAN_MOTION_DDOT":"0.0000000000000","ARG_OF_PERICENTER":"124.4786","FILE":"3753951","NORAD_CAT_ID":"54083","OBJECT_NAME":"STARLINK-5178","ECCENTRICITY":"0.00011040","TLE_LINE2":"2 54083  53.2179  80.0377 0001104 124.4786 235.6310 15.08867806 13937","MEAN_ELEMENT_THEORY":"SGP4","RCS_SIZE":"LARGE","GP_ID":"223425156","CLASSIFICATION_TYPE":"U","REV_AT_EPOCH":"1393","COUNTRY_CODE":"US","LAUNCH_DATE":"2022-10-20","SEMIMAJOR_AXIS":"6917.795","EPOCH":"2023-01-18T09:48:25.479072","APOAPSIS":"540.424","PERIAPSIS":"538.897","OBJECT_TYPE":"PAYLOAD","CENTER_NAME":"EARTH","BSTAR":"0.00006049200000","INCLINATION":"53.2179","TIME_SYSTEM":"UTC","ELEMENT_SET_NO":"999"},{"OBJECT_ID":"2022-136AK","TLE_LINE1":"1 54084U 22136AK  23018.47953042  .00043286  00000-0  27185-2 0  9991","REF_FRAME":"TEME","DECAY_DATE":null,"MEAN_MOTION":"15.08876677","MEAN_ANOMALY":"235.1488","SITE":"AFETR","PERIOD":"95.435","FILE":"3754224","ARG_OF_PERICENTER":"124.9570","MEAN_MOTION_DDOT":"0.0000000000000","MEAN_MOTION_DOT":"0.00043286","RA_OF_ASC_NODE":"79.7682","EPHEMERIS_TYPE":"0","EPOCH":"2023-01-18T11:30:31.428288","SEMIMAJOR_AXIS":"6917.768","LAUNCH_DATE":"2022-10-20","REV_AT_EPOCH":"1442","GP_ID":"223432029","CLASSIFICATION_TYPE":"U","RCS_SIZE":"LARGE","COUNTRY_CODE":"US","NORAD_CAT_ID":"54084","OBJECT_NAME":"STARLINK-5183","TLE_LINE2":"2 54084  53.2157  79.7682 0000699 124.9570 235.1488 15.08876677 14424","MEAN_ELEMENT_THEORY":"SGP4","ECCENTRICITY":"0.00006990","INCLINATION":"53.2157","ELEMENT_SET_NO":"999","TIME_SYSTEM":"UTC","BSTAR":"0.00271850000000","PERIAPSIS":"539.150","OBJECT_TYPE":"PAYLOAD","CENTER_NAME":"EARTH","APOAPSIS":"540.117"},{"FILE":"3754254","ARG_OF_PERICENTER":"91.2764","MEAN_MOTION_DDOT":"0.0000000000000","MEAN_MOTION_DOT":"0.00012221","EPHEMERIS_TYPE":"0","RA_OF_ASC_NODE":"77.9345","OBJECT_ID":"2022-136AL","REF_FRAME":"TEME","DECAY_DATE":null,"MEAN_MOTION":"15.08874200","TLE_LINE1":"1 54085U 22136AL  23018.86863271  .00012221  00000-0  78386-3 0  9994","SITE":"AFETR","MEAN_ANOMALY":"268.8476","PERIOD":"95.435","ELEMENT_SET_NO":"999","TIME_SYSTEM":"UTC","INCLINATION":"53.2169","BSTAR":"0.00078386000000","OBJECT_TYPE":"PAYLOAD","CENTER_NAME":"EARTH","PERIAPSIS":"538.145","APOAPSIS":"541.136","SEMIMAJOR_AXIS":"6917.776","EPOCH":"2023-01-18T20:50:49.866144","LAUNCH_DATE":"2022-10-20","COUNTRY_CODE":"US","REV_AT_EPOCH":"1400","CLASSIFICATION_TYPE":"U","GP_ID":"223458847","RCS_SIZE":"LARGE","TLE_LINE2":"2 54085  53.2169  77.9345 0002162  91.2764 268.8476 15.08874200 14006","MEAN_ELEMENT_THEORY":"SGP4","ECCENTRICITY":"0.00021620","NORAD_CAT_ID":"54085","OBJECT_NAME":"STARLINK-5166"},{"TIME_SYSTEM":"UTC","ELEMENT_SET_NO":"999","INCLINATION":"53.2160","APOAPSIS":"466.136","PERIAPSIS":"464.476","OBJECT_TYPE":"PAYLOAD","CENTER_NAME":"EARTH","BSTAR":"-0.02842900000000","LAUNCH_DATE":"2022-10-20","EPOCH":"2023-01-18T22:00:00.999936","SEMIMAJOR_AXIS":"6843.441","ECCENTRICITY":"0.00012130","TLE_LINE2":"2 54086  53.2160  63.9015 0001213  88.0024 306.7576 15.33525302  1302","MEAN_ELEMENT_THEORY":"SGP4","NORAD_CAT_ID":"54086","OBJECT_NAME":"STARLINK-5211","COUNTRY_CODE":"US","GP_ID":"223457116","RCS_SIZE":"LARGE","CLASSIFICATION_TYPE":"U","REV_AT_EPOCH":"130","MEAN_MOTION_DDOT":"0.0000000000000","ARG_OF_PERICENTER":"88.0024","FILE":"3754254","EPHEMERIS_TYPE":"0","RA_OF_ASC_NODE":"63.9015","MEAN_MOTION_DOT":"-0.00861118","MEAN_MOTION":"15.33525302","DECAY_DATE":null,"REF_FRAME":"TEME","TLE_LINE1":"1 54086U 22136AM  23018.91667824 -.00861118  00000-0 -28429-1 0  9997","OBJECT_ID":"2022-136AM","PERIOD":"93.901","SITE":"AFETR","MEAN_ANOMALY":"306.7576"},{"MEAN_MOTION_DOT":"0.00000165","EPHEMERIS_TYPE":"0","RA_OF_ASC_NODE":"79.6948","ARG_OF_PERICENTER":"102.8563","FILE":"3753985","MEAN_MOTION_DDOT":"0.0000000000000","MEAN_ANOMALY":"257.2541","SITE":"AFETR","PERIOD":"95.436","OBJECT_ID":"2022-136AN","TLE_LINE1":"1 54087U 22136AN  23018.46749597  .00000165  00000-0  28425-4 0  9990","MEAN_MOTION":"15.08864342","DECAY_DATE":null,"REF_FRAME":"TEME","OBJECT_TYPE":"PAYLOAD","CENTER_NAME":"EARTH","PERIAPSIS":"538.978","BSTAR":"0.00002842500000","APOAPSIS":"540.364","INCLINATION":"53.2171","TIME_SYSTEM":"UTC","ELEMENT_SET_NO":"999","CLASSIFICATION_TYPE":"U","GP_ID":"223426812","RCS_SIZE":"LARGE","REV_AT_EPOCH":"1441","COUNTRY_CODE":"US","NORAD_CAT_ID":"54087","OBJECT_NAME":"STARLINK-5184","ECCENTRICITY":"0.00010020","TLE_LINE2":"2 54087  53.2171  79.6948 0001002 102.8563 257.2541 15.08864342 14413","MEAN_ELEMENT_THEORY":"SGP4","SEMIMAJOR_AXIS":"6917.806","EPOCH":"2023-01-18T11:13:11.651808","LAUNCH_DATE":"2022-10-20"},{"APOAPSIS":"540.535","PERIAPSIS":"538.773","OBJECT_TYPE":"PAYLOAD","CENTER_NAME":"EARTH","BSTAR":"-0.00000015684000","INCLINATION":"53.2165","TIME_SYSTEM":"UTC","ELEMENT_SET_NO":"999","NORAD_CAT_ID":"54088","OBJECT_NAME":"STARLINK-5153","ECCENTRICITY":"0.00012740","MEAN_ELEMENT_THEORY":"SGP4","TLE_LINE2":"2 54088  53.2165  77.9792 0001274  82.3461 277.7675 15.08869862 14007","RCS_SIZE":"LARGE","GP_ID":"223458600","CLASSIFICATION_TYPE":"U","REV_AT_EPOCH":"1400","COUNTRY_CODE":"US","LAUNCH_DATE":"2022-10-20","SEMIMAJOR_AXIS":"6917.789","EPOCH":"2023-01-18T21:01:25.363200","EPHEMERIS_TYPE":"0","RA_OF_ASC_NODE":"77.9792","MEAN_MOTION_DOT":"-0.00000290","MEAN_MOTION_DDOT":"0.0000000000000","ARG_OF_PERICENTER":"82.3461","FILE":"3754254","PERIOD":"95.436","MEAN_ANOMALY":"277.7675","SITE":"AFETR","TLE_LINE1":"1 54088U 22136AP  23018.87598800 -.00000290  00000-0 -15684-6 0  9991","MEAN_MOTION":"15.08869862","REF_FRAME":"TEME","DECAY_DATE":null,"OBJECT_ID":"2022-136AP"},{"MEAN_MOTION_DDOT":"0.0000000000000","FILE":"3754254","ARG_OF_PERICENTER":"72.2931","EPHEMERIS_TYPE":"0","RA_OF_ASC_NODE":"77.8408","MEAN_MOTION_DOT":"-0.00001114","REF_FRAME":"TEME","DECAY_DATE":null,"MEAN_MOTION":"15.08855494","TLE_LINE1":"1 54089U 22136AQ  23018.85388158 -.00001114  00000-0 -51918-4 0  9997","OBJECT_ID":"2022-136AQ","PERIOD":"95.437","SITE":"AFETR","MEAN_ANOMALY":"287.8206","ELEMENT_SET_NO":"999","TIME_SYSTEM":"UTC","INCLINATION":"53.2170","APOAPSIS":"540.621","BSTAR":"-0.00005191800000","OBJECT_TYPE":"PAYLOAD","CENTER_NAME":"EARTH","PERIAPSIS":"538.775","LAUNCH_DATE":"2022-10-20","SEMIMAJOR_AXIS":"6917.833","EPOCH":"2023-01-18T20:29:35.368512","TLE_LINE2":"2 54089  53.2170  77.8408 0001334  72.2931 287.8206 15.08855494 14002","MEAN_ELEMENT_THEORY":"SGP4","ECCENTRICITY":"0.00013340","NORAD_CAT_ID":"54089","OBJECT_NAME":"STARLINK-5143","COUNTRY_CODE":"US","REV_AT_EPOCH":"1400","RCS_SIZE":"LARGE","GP_ID":"223458354","CLASSIFICATION_TYPE":"U"},{"LAUNCH_DATE":"2022-10-20","SEMIMAJOR_AXIS":"6917.822","EPOCH":"2023-01-18T20:34:53.419008","ECCENTRICITY":"0.00011150","TLE_LINE2":"2 54090  53.2168  77.8646 0001115 104.5607 255.5509 15.08858988 14000","MEAN_ELEMENT_THEORY":"SGP4","OBJECT_NAME":"STARLINK-5177","NORAD_CAT_ID":"54090","COUNTRY_CODE":"US","RCS_SIZE":"LARGE","GP_ID":"223457612","CLASSIFICATION_TYPE":"U","REV_AT_EPOCH":"1400","TIME_SYSTEM":"UTC","ELEMENT_SET_NO":"999","INCLINATION":"53.2168","APOAPSIS":"540.459","CENTER_NAME":"EARTH","OBJECT_TYPE":"PAYLOAD","PERIAPSIS":"538.916","BSTAR":"0.00001711500000","MEAN_MOTION":"15.08858988","DECAY_DATE":null,"REF_FRAME":"TEME","TLE_LINE1":"1 54090U 22136AR  23018.85756272 -.00000015  00000-0  17115-4 0  9994","OBJECT_ID":"2022-136AR","PERIOD":"95.436","SITE":"AFETR","MEAN_ANOMALY":"255.5509","MEAN_MOTION_DDOT":"0.0000000000000","ARG_OF_PERICENTER":"104.5607","FILE":"3754254","RA_OF_ASC_NODE":"77.8646","EPHEMERIS_TYPE":"0","MEAN_MOTION_DOT":"-0.00000015"},{"BSTAR":"0.00013209000000","OBJECT_TYPE":"PAYLOAD","PERIAPSIS":"538.958","CENTER_NAME":"EARTH","APOAPSIS":"540.411","ELEMENT_SET_NO":"999","TIME_SYSTEM":"UTC","INCLINATION":"53.2183","COUNTRY_CODE":"US","REV_AT_EPOCH":"1394","RCS_SIZE":"LARGE","GP_ID":"223425157","CLASSIFICATION_TYPE":"U","TLE_LINE2":"2 54091  53.2183  79.5702 0001050  71.7922 288.3184 15.08859985 13946","MEAN_ELEMENT_THEORY":"SGP4","ECCENTRICITY":"0.00010500","OBJECT_NAME":"STARLINK-5221","NORAD_CAT_ID":"54091","SEMIMAJOR_AXIS":"6917.819","EPOCH":"2023-01-18T10:42:44.073216","LAUNCH_DATE":"2022-10-20","MEAN_MOTION_DOT":"0.00001816","RA_OF_ASC_NODE":"79.5702","EPHEMERIS_TYPE":"0","FILE":"3753951","ARG_OF_PERICENTER":"71.7922","MEAN_MOTION_DDOT":"0.0000000000000","SITE":"AFETR","MEAN_ANOMALY":"288.3184","PERIOD":"95.436","OBJECT_ID":"2022-136AS","DECAY_DATE":null,"REF_FRAME":"TEME","MEAN_MOTION":"15.08859985","TLE_LINE1":"1 54091U 22136AS  23018.44634344  .00001816  00000-0  13209-3 0  9993"}];
